[ {"name": "STARLINK-5840", "line1": "1 57231U 23094P   26199.52868374 -.00001471  00000+0 -43955-4 0  9990", "line2": "2 57231  43.0055  11.9771 0001442 281.6871  78.3819 15.27575992167122"}, {"name": "STARLINK-5872", "line1": "1 57232U 23094Q   26199.52355199  .00000564  00000+0  30005-4 0  9999", "line2": "2 57232  43.0043  11.9319 0001230 266.8653  93.2057 15.27581890167782"}, {"name": "STARLINK-5866", "line1": "1 57233U 23094R   26199.19018315 -.00002668  00000+0 -87483-4 0  9990", "line2": "2 57233  43.0039  13.7397 0001109 270.7130  89.3594 15.27571154167079"}, {"name": "STARLINK-6368", "line1": "1 57234U 23094S   26199.49141467 -.00000143  00000+0  43165-5 0  9994", "line2": "2 57234  43.0032  11.6917 0001529 257.2772 102.7909 15.27575915167121"}, {"name": "STARLINK-6360", "line1": "1 57235U 23094T   26199.51327032 -.00000755  00000+0 -17905-4 0  9994", "line2": "2 57235  43.0036  11.8627 0001197 262.5491  97.5225 15.27570964167125"}, {"name": "STARLINK-6315", "line1": "1 57236U 23094U   26199.49157399 -.00000497  00000+0 -85213-5 0  9990", "line2": "2 57236  43.0043   1.2665 0001266 267.0673  93.0034 15.27574775167244"}, {"name": "STARLINK-6365", "line1": "1 57237U 23094V   26199.50426712 -.00000164  00000+0  35572-5 0  9994", "line2": "2 57237  43.0021  11.7893 0001204 264.1690  95.9025 15.27574976167120"}, {"name": "STARLINK-6334", "line1": "1 57238U 23094W   26199.50570389 -.00002868  00000+0 -94708-4 0  9994", "line2": "2 57238  43.0049   1.3625 0001625 275.4319  84.6347 15.27582112167245"}, {"name": "STARLINK-6330", "line1": "1 57239U 23094X   26199.56065953  .00000692  00000+0  34662-4 0  9991", "line2": "2 57239  43.0024  11.3520 0001523 253.2982 106.7703 15.27587911167133"}, {"name": "STARLINK-6351", "line1": "1 57240U 23094Y   26199.52097899  .00000469  00000+0  26576-4 0  9990", "line2": "2 57240  43.0038   0.6224 0001927 263.9693  96.0939 15.27576556167255"}, {"name": "STARLINK-6349", "line1": "1 57241U 23094Z   26199.49544901  .00000549  00000+0  29473-4 0  9996", "line2": "2 57241  43.0041   1.2946 0001170 260.4662  99.6058 15.27563213167242"}, {"name": "STARLINK-6306", "line1": "1 57242U 23094AA  26199.50185432 -.00000208  00000+0  19737-5 0  9995", "line2": "2 57242  43.0048   1.3390 0001281 272.9742  87.0963 15.27574766167245"}, {"name": "STARLINK-6346", "line1": "1 57243U 23094AB  26199.49799953  .00000009  00000+0  98584-5 0  9998", "line2": "2 57243  43.0045   1.3107 0001170 267.6080  92.4638 15.27575394167249"}, {"name": "STARLINK-5610", "line1": "1 57244U 23094AC  26199.51455566  .00000717  00000+0  35597-4 0  9991", "line2": "2 57244  43.0043   0.5763 0001753 268.7437  91.3214 15.27578579167259"}, {"name": "STARLINK-5587", "line1": "1 57245U 23094AD  26199.50957858  .00000052  00000+0  11440-4 0  9995", "line2": "2 57245  43.0070   1.3926 0001788 285.5012  74.5642 15.27573885167246"}, {"name": "STARLINK-5049", "line1": "1 57246U 23094AE  26199.45173808  .00000437  00000+0  25409-4 0  9992", "line2": "2 57246  43.0044   0.9606 0001624 274.3488  85.7178 15.27576452167241"}, {"name": "STARLINK-5039", "line1": "1 57247U 23094AF  26199.45944986 -.00000170  00000+0  33392-5 0  9992", "line2": "2 57247  43.0033   1.0144 0001401 261.0437  99.0256 15.27576484167249"}, {"name": "STARLINK-5514", "line1": "1 57248U 23094AG  26199.52868963  .00000505  00000+0  27880-4 0  9996", "line2": "2 57248  43.0002   0.6696 0001370 261.8710  98.1986 15.27574658167252"}, {"name": "STARLINK-5517", "line1": "1 57249U 23094AH  26199.53253612  .00000079  00000+0  12383-4 0  9995", "line2": "2 57249  43.0033   0.6450 0001435 243.8695 116.2009 15.27575434167250"}, {"name": "STARLINK-5488", "line1": "1 57250U 23094AJ  26199.48129448 -.00000560  00000+0 -10826-4 0  9997", "line2": "2 57250  43.0037   1.1801 0001337 258.8545 101.2156 15.27574208167247"}, {"name": "STARLINK-5513", "line1": "1 57251U 23094AK  26199.14408258  .00000001  00000+0  95567-5 0  9994", "line2": "2 57251  43.0036   2.9496 0001439 261.2037  98.8652 15.27574872167196"}, {"name": "STARLINK-5511", "line1": "1 57252U 23094AL  26199.52355729  .00000668  00000+0  33828-4 0  9991", "line2": "2 57252  43.0041   0.6418 0001560 266.1660  93.9013 15.27571129167259"}, {"name": "STARLINK-5516", "line1": "1 57253U 23094AM  26199.47745094 -.00001089  00000+0 -30086-4 0  9997", "line2": "2 57253  43.0032   1.1496 0001222 271.0008  89.0703 15.27566028167241"}, {"name": "STARLINK-5490", "line1": "1 57254U 23094AN  26199.53126134 -.00000601  00000+0 -12328-4 0  9991", "line2": "2 57254  43.0030   0.6915 0001580 247.0142 113.0543 15.27579535167257"}, {"name": "STARLINK-5481", "line1": "1 57255U 23094AP  26199.46202038 -.00000036  00000+0  82146-5 0  9999", "line2": "2 57255  43.0025   1.0306 0001253 265.8760  94.1948 15.27576035167241"}, {"name": "STARLINK-5512", "line1": "1 57256U 23094AQ  26199.48771819  .00000194  00000+0  16562-4 0  9992", "line2": "2 57256  43.0040   1.2369 0001216 267.3831  92.6881 15.27575056167246"}, {"name": "STARLINK-5503", "line1": "1 57257U 23094AR  26198.89666853 -.00000546  00000+0 -10319-4 0  9995", "line2": "2 57257  43.0038   4.5301 0001321 270.3424  89.7276 15.27577062167812"}, {"name": "STARLINK-5476", "line1": "1 57258U 23094AS  26199.47358207 -.00000052  00000+0  76257-5 0  9997", "line2": "2 57258  43.0038   1.1178 0001269 271.6012  88.4694 15.27577178167241"}, {"name": "STARLINK-5026", "line1": "1 57260U 23094AU  26199.47615528 -.00000408  00000+0 -52884-5 0  9998", "line2": "2 57260  43.0037   1.1360 0001197 266.6141  93.4574 15.27574214167884"}, {"name": "STARLINK-5485", "line1": "1 57261U 23094AV  26199.18247440  .00000026  00000+0  10474-4 0  9993", "line2": "2 57261  43.0030  13.6796 0001144 265.6150  94.4571 15.27574305167070"}, {"name": "STARLINK-5504", "line1": "1 57262U 23094AW  26199.46972810  .00000578  00000+0  30537-4 0  9995", "line2": "2 57262  43.0028   1.0884 0001218 266.7310  93.3403 15.27576559167243"}, {"name": "STARLINK-5509", "line1": "1 57263U 23094AX  26199.50556068  .00000370  00000+0  22980-4 0  9997", "line2": "2 57263  43.0028  11.8075 0001061 261.4961  98.5771 15.27584157167120"}, {"name": "STARLINK-5858", "line1": "1 57264U 23094AY  26198.82614282 -.00001100  00000+0 -30438-4 0  9996", "line2": "2 57264  43.0034   4.8567 0001209 270.0699  90.0014 15.27579740167145"}, {"name": "STARLINK-30198", "line1": "1 57290U 23096A   26199.39351819  .00019751  00000+0  72285-3 0  9998", "line2": "2 57290  42.9843 209.4734 0007546  82.3995 277.7713 15.27671762167554"}, {"name": "STARLINK-30239", "line1": "1 57291U 23096B   26199.43146402  .00002750  00000+0  10938-3 0  9992", "line2": "2 57291  43.0012 204.7353 0001499 268.3058  91.7622 15.27595080167615"}, {"name": "STARLINK-30235", "line1": "1 57294U 23096E   26199.37252625 -.00000173  00000+0  32188-5 0  9994", "line2": "2 57294  43.0008 205.1508 0001243 276.2528  83.8182 15.27575242167607"}, {"name": "STARLINK-30236", "line1": "1 57300U 23096L   26199.04944959 -.00000516  00000+0 -92311-5 0  9990", "line2": "2 57300  43.0006 207.0151 0001080 271.8038  88.2690 15.27571175167596"}, {"name": "STARLINK-30201", "line1": "1 57301U 23096M   26199.32128641  .00004823  00000+0  18475-3 0  9994", "line2": "2 57301  42.9995 205.6177 0001123 286.7028  73.3701 15.27567332166694"}, {"name": "STARLINK-30233", "line1": "1 57302U 23096N   26199.38023033  .00000340  00000+0  21895-4 0  9991", "line2": "2 57302  43.0006 205.1828 0001218 277.6520  82.4194 15.27577008166709"}, {"name": "STARLINK-30184", "line1": "1 57310U 23096W   26199.02364932  .00000283  00000+0  19796-4 0  9990", "line2": "2 57310  43.0004 178.4075 0001319 260.0452 100.0250 15.27578009166986"}, {"name": "STARLINK-6290", "line1": "1 57328U 23099A   26199.48553636  .00000238  00000+0  18216-4 0  9999", "line2": "2 57328  43.0038 233.4247 0002984 293.9963  66.0576 15.27576283166991"}, {"name": "STARLINK-6138", "line1": "1 57329U 23099B   26199.11893471 -.00002077  00000+0 -66008-4 0  9991", "line2": "2 57329  43.0008 235.8311 0001117 272.0148  88.0576 15.27564430166026"}, {"name": "STARLINK-6212", "line1": "1 57330U 23099C   26199.49710602 -.00000251  00000+0  39820-6 0  9993", "line2": "2 57330  43.0032 233.5141 0001669 272.9466  87.1195 15.27578917166083"}, {"name": "STARLINK-6234", "line1": "1 57331U 23099D   26199.50096157  .00000008  00000+0  98254-5 0  9992", "line2": "2 57331  43.0027 233.5429 0001577 275.3857  84.6814 15.27573586166083"}, {"name": "STARLINK-5831", "line1": "1 57332U 23099E   26199.43813907  .00000656  00000+0  33365-4 0  9995", "line2": "2 57332  43.0023 233.9292 0001405 265.1630  94.9061 15.27580618166079"}, {"name": "STARLINK-5585", "line1": "1 57333U 23099F   26199.50738431  .00000256  00000+0  18808-4 0  9993", "line2": "2 57333  42.9993 233.5893 0001312 276.0035  84.0667 15.27581396166081"}, {"name": "STARLINK-5589", "line1": "1 57334U 23099G   26199.44970481  .00000092  00000+0  12856-4 0  9995", "line2": "2 57334  43.0006 234.0075 0001291 270.6381  89.4323 15.27575924166074"}, {"name": "STARLINK-6316", "line1": "1 57335U 23099H   26199.46819644  .00000422  00000+0  24847-4 0  9991", "line2": "2 57335  43.0026 230.7462 0001243 273.6998  86.3712 15.27574038166112"}, {"name": "STARLINK-6320", "line1": "1 57336U 23099J   26199.46177810  .00000751  00000+0  36816-4 0  9998", "line2": "2 57336  43.0015 230.6752 0001109 286.3356  73.7374 15.27569614166110"}, {"name": "STARLINK-6322", "line1": "1 57337U 23099K   26199.52280257 -.00000470  00000+0 -75493-5 0  9991", "line2": "2 57337  43.0007 233.6960 0001381 269.0837  90.9857 15.27576234166089"}, {"name": "STARLINK-6374", "line1": "1 57338U 23099L   26199.52537060 -.00000419  00000+0 -57203-5 0  9991", "line2": "2 57338  43.0014 233.7153 0001359 271.7726  88.2970 15.27576650166083"}, {"name": "STARLINK-6332", "line1": "1 57339U 23099M   26199.45356081 -.00000017  00000+0  89031-5 0  9993", "line2": "2 57339  43.0005 234.0371 0001177 271.5678  88.5039 15.27577523166070"}]